[{"OBJECT_NAME":"THEA","OBJECT_ID":"2018-099AQ","EPOCH":"2026-03-09T22:33:02.658240","MEAN_MOTION":15.31454284,"ECCENTRICITY":0.00065849,"INCLINATION":97.4542,"RA_OF_ASC_NODE":137.8815,"ARG_OF_PERICENTER":275.4664,"MEAN_ANOMALY":84.5826,"EPHEMERIS_TYPE":0,"CLASSIFICATION_TYPE":"U","NORAD_CAT_ID":43796,"ELEMENT_SET_NO":999,"REV_AT_EPOCH":39748,"BSTAR":0.00074635274,"MEAN_MOTION_DOT":0.00022649,"MEAN_MOTION_DDOT":0},{"OBJECT_NAME":"STARLINK-32697","OBJECT_ID":"2024-251E","EPOCH":"2026-03-09T23:32:13.064064","MEAN_MOTION":15.30192066,"ECCENTRICITY":0.00010773,"INCLINATION":53.1595,"RA_OF_ASC_NODE":333.9073,"ARG_OF_PERICENTER":112.6856,"MEAN_ANOMALY":247.4259,"EPHEMERIS_TYPE":0,"CLASSIFICATION_TYPE":"U","NORAD_CAT_ID":62436,"ELEMENT_SET_NO":999,"REV_AT_EPOCH":6799,"BSTAR":0.00045008429,"MEAN_MOTION_DOT":0.00012991,"MEAN_MOTION_DDOT":0}]
